NORAD_CAT_ID,OBJECT_NAME,OBJECT_TYPE,EPOCH,MEAN_MOTION,ECCENTRICITY,INCLINATION,RA_OF_ASC_NODE,ARG_OF_PERICENTER,MEAN_ANOMALY,BSTAR,MEAN_MOTION_DOT,MEAN_MOTION_DDOT,TLE_LINE0,TLE_LINE1,TLE_LINE2,SEMIMAJOR_AXIS,PERIOD,APOGEE,PERIGEE,DECAYED
55776.0,STARLINK-5810,PAYLOAD,2023-11-26 19:53:41,14.98329366,0.0002451,69.9992,166.7214,254.3858,105.703,1.3589e-05,6.9e-07,0.0,0 STARLINK-5810,1 55776U 23028AM  23330.82895339  .00000069  00000-0  13589-4 0  9998,2 55776  69.9992 166.7214 0002451 254.3858 105.7030 14.98329366 41631,6950.195,96.107,573.763,570.356,0.0
55776.0,STARLINK-5810,PAYLOAD,2023-11-26 21:29:49,14.98328405,0.0002573,69.999,166.5542,263.3209,96.7658,-1.7872e-05,-3.06e-06,0.0,0 STARLINK-5810,1 55776U 23028AM  23330.89571529 -.00000306  00000-0 -17872-4 0  9992,2 55776  69.9990 166.5542 0002573 263.3209  96.7658 14.98328405 41645,6950.198,96.107,573.851,570.275,0.0
55776.0,STARLINK-5810,PAYLOAD,2023-11-27 13:31:10,14.98332696,0.0002576,69.9988,164.8697,262.1833,97.9033,-4.9004e-05,-6.78e-06,0.0,0 STARLINK-5810,1 55776U 23028AM  23331.56331227 -.00000678  00000-0 -49004-4 0  9990,2 55776  69.9988 164.8697 0002576 262.1833  97.9033 14.98332696 41745,6950.185,96.107,573.84,570.259,0.0
55776.0,STARLINK-5810,PAYLOAD,2023-11-27 19:55:42,14.983324,0.0002593,69.9989,164.1964,260.8985,99.1881,-7.0146e-05,-9.3e-06,0.0,0 STARLINK-5810,1 55776U 23028AM  23331.83035251 -.00000930  00000-0 -70146-4 0  9990,2 55776  69.9989 164.1964 0002593 260.8985  99.1881 14.98332400 41780,6950.185,96.107,573.853,570.248,0.0
55776.0,STARLINK-5810,PAYLOAD,2023-11-27 21:31:50,14.98333957,0.0002551,69.999,164.0281,259.856,100.2311,-5.1585e-05,-7.08e-06,0.0,0 STARLINK-5810,1 55776U 23028AM  23331.89711075 -.00000708  00000-0 -51585-4 0  9990,2 55776  69.9990 164.0281 0002551 259.8560 100.2311 14.98333957 41795,6950.181,96.107,573.819,570.273,0.0
55776.0,STARLINK-5810,PAYLOAD,2023-11-28 13:33:10,14.98330902,0.0002698,69.9989,162.3449,270.5647,89.5202,3.0469e-05,2.71e-06,0.0,0 STARLINK-5810,1 55776U 23028AM  23332.56470904  .00000271  00000-0  30469-4 0  9999,2 55776  69.9989 162.3449 0002698 270.5647  89.5202 14.98330902 41894,6950.19,96.107,573.93,570.18,0.0
55776.0,STARLINK-5810,PAYLOAD,2023-11-28 19:57:42,14.98348982,0.0002244,69.999,161.6719,257.8865,102.2043,-0.00029079,-3.562e-05,0.0,0 STARLINK-5810,1 55776U 23028AM  23332.83174603 -.00003562  00000-0 -29079-3 0  9998,2 55776  69.9990 161.6719 0002244 257.8865 102.2043 14.98348982 41933,6950.134,96.106,573.559,570.44,0.0
55776.0,STARLINK-5810,PAYLOAD,2023-11-29 11:59:03,14.98328291,0.0002521,69.9997,159.9895,261.6004,98.4869,4.7731e-05,4.77e-06,0.0,0 STARLINK-5810,1 55776U 23028AM  23333.49934924  .00000477  00000-0  47731-4 0  9997,2 55776  69.9997 159.9895 0002521 261.6004  98.4869 14.98328291 42036,6950.198,96.107,573.815,570.311,0.0
55776.0,STARLINK-5810,PAYLOAD,2023-11-29 13:35:11,14.98329017,0.000266,69.9997,159.8213,268.2055,91.8799,3.5105e-05,3.26e-06,0.0,0 STARLINK-5810,1 55776U 23028AM  23333.56610913  .00000326  00000-0  35105-4 0  9999,2 55776  69.9997 159.8213 0002660 268.2055  91.8799 14.98329017 42049,6950.196,96.107,573.91,570.212,0.0
55776.0,STARLINK-5810,PAYLOAD,2023-11-30 12:01:04,14.98331113,0.0002624,69.9992,157.4641,268.8306,91.2553,-1.984e-05,-3.3e-06,0.0,0 STARLINK-5810,1 55776U 23028AM  23334.50074885 -.00000330  00000-0 -19840-4 0  9991,2 55776  69.9992 157.4641 0002624 268.8306  91.2553 14.98331113 42185,6950.189,96.107,573.878,570.231,0.0
55776.0,STARLINK-5810,PAYLOAD,2023-12-01 12:03:03,14.98350595,0.0002769,69.9993,154.9393,265.3277,94.7566,0.00020322,2.334e-05,0.0,0 STARLINK-5810,1 55776U 23028AM  23335.50212408  .00002334  00000-0  20322-3 0  9997,2 55776  69.9993 154.9393 0002769 265.3277  94.7566 14.98350595 42335,6950.129,96.106,573.919,570.07,0.0
55776.0,STARLINK-5810,PAYLOAD,2023-12-01 20:03:45,14.98326419,0.0002633,69.9992,154.0977,256.9076,103.1789,-7.3735e-05,-9.73e-06,0.0,0 STARLINK-5810,1 55776U 23028AM  23335.83594442 -.00000973  00000-0 -73735-4 0  9990,2 55776  69.9992 154.0977 0002633 256.9076 103.1789 14.98326419 42381,6950.204,96.107,573.899,570.239,0.0
55776.0,STARLINK-5810,PAYLOAD,2023-12-01 21:39:53,14.98326645,0.0002614,69.9992,153.9293,261.037,99.0493,-7.1389e-05,-9.45e-06,0.0,0 STARLINK-5810,1 55776U 23028AM  23335.90270447 -.00000945  00000-0 -71389-4 0  9996,2 55776  69.9992 153.9293 0002614 261.0370  99.0493 14.98326645 42390,6950.203,96.107,573.885,570.251,0.0
55776.0,STARLINK-5810,PAYLOAD,2023-12-02 13:41:14,14.98327313,0.0002837,69.9985,152.245,269.4208,90.6626,-6.1574e-05,-8.28e-06,0.0,0 STARLINK-5810,1 55776U 23028AM  23336.57030361 -.00000828  00000-0 -61574-4 0  9994,2 55776  69.9985 152.2450 0002837 269.4208  90.6626 14.98327313 42497,6950.201,96.107,574.038,570.094,0.0
55776.0,STARLINK-5810,PAYLOAD,2023-12-02 20:05:46,14.98327424,0.0002795,69.9987,151.5717,267.6478,92.4361,-5.5802e-05,-7.59e-06,0.0,0 STARLINK-5810,1 55776U 23028AM  23336.83734339 -.00000759  00000-0 -55802-4 0  9999,2 55776  69.9987 151.5717 0002795 267.6478  92.4361 14.98327424 42533,6950.201,96.107,574.008,570.123,0.0
55776.0,STARLINK-5810,PAYLOAD,2023-12-02 21:41:54,14.98327127,0.0002831,69.9985,151.4032,268.1841,91.8994,-6.2701e-05,-8.41e-06,0.0,0 STARLINK-5810,1 55776U 23028AM  23336.90410366 -.00000841  00000-0 -62701-4 0  9996,2 55776  69.9985 151.4032 0002831 268.1841  91.8994 14.98327127 42547,6950.202,96.107,574.034,570.099,0.0
55776.0,STARLINK-5810,PAYLOAD,2023-12-03 13:43:15,14.98340244,0.000272,69.9987,149.7202,262.0383,98.0467,-0.00044206,-5.365e-05,0.0,0 STARLINK-5810,1 55776U 23028AM  23337.57170604 -.00005365  00000-0 -44206-3 0  9993,2 55776  69.9987 149.7202 0002720 262.0383  98.0467 14.98340244 42649,6950.161,96.106,573.917,570.136,0.0
55776.0,STARLINK-5810,PAYLOAD,2023-12-03 20:07:47,14.98331835,0.0002759,69.9988,149.0469,265.65,94.4343,-0.00039033,-4.747e-05,0.0,0 STARLINK-5810,1 55776U 23028AM  23337.83874956 -.00004747  00000-0 -39033-3 0  9998,2 55776  69.9988 149.0469 0002759 265.6500  94.4343 14.98331835 42683,6950.187,96.107,573.97,570.135,0.0
55776.0,STARLINK-5810,PAYLOAD,2023-12-04 12:09:08,14.98319022,0.0002815,69.9986,147.364,270.8287,89.255,-7.2862e-06,-1.8e-06,0.0,0 STARLINK-5810,1 55776U 23028AM  23338.50635362 -.00000180  00000-0 -72862-5 0  9995,2 55776  69.9986 147.3640 0002815 270.8287  89.2550 14.98319022 42783,6950.227,96.108,574.048,570.135,0.0
55776.0,STARLINK-5810,PAYLOAD,2023-12-04 21:45:57,14.98318117,0.0002832,69.9986,146.3541,270.9139,89.1695,-1.4754e-05,-2.69e-06,0.0,0 STARLINK-5810,1 55776U 23028AM  23338.90691751 -.00000269  00000-0 -14754-4 0  9996,2 55776  69.9986 146.3541 0002832 270.9139  89.1695 14.98318117 42848,6950.23,96.108,574.063,570.126,0.0
55776.0,STARLINK-5810,PAYLOAD,2023-12-05 12:11:10,14.98319294,0.0003024,69.9984,144.8392,272.5829,87.4984,7.808e-05,8.38e-06,0.0,0 STARLINK-5810,1 55776U 23028AM  23339.50775825  .00000838  00000-0  78080-4 0  9990,2 55776  69.9984 144.8392 0003024 272.5829  87.4984 14.98319294 42930,6950.226,96.108,574.193,569.989,0.0
55776.0,STARLINK-5810,PAYLOAD,2023-12-06 12:13:11,14.98328979,0.0002963,70.0015,142.3167,269.3373,90.7447,8.801e-05,9.57e-06,0.0,0 STARLINK-5810,1 55776U 23028AM  23340.50915603  .00000957  00000-0  88010-4 0  9998,2 55776  70.0015 142.3167 0002963 269.3373  90.7447 14.98328979 43088,6950.196,96.107,574.12,570.002,0.0
55776.0,STARLINK-5810,PAYLOAD,2023-12-06 21:49:59,14.98330947,0.0002918,70.0011,141.3065,268.198,91.8845,0.00010413,1.15e-05,0.0,0 STARLINK-5810,1 55776U 23028AM  23340.90971420  .00001150  00000-0  10413-3 0  9998,2 55776  70.0011 141.3065 0002918 268.1980  91.8845 14.98330947 43140,6950.19,96.107,574.083,570.027,0.0
55776.0,STARLINK-5810,PAYLOAD,2023-12-07 12:15:11,14.98337828,0.0002923,70.0012,139.7923,268.0347,92.0477,7.7485e-05,8.32e-06,0.0,0 STARLINK-5810,1 55776U 23028AM  23341.51054892  .00000832  00000-0  77485-4 0  9990,2 55776  70.0012 139.7923 0002923 268.0347  92.0477 14.98337828 43236,6950.169,96.106,574.065,570.002,0.0
55776.0,STARLINK-5810,PAYLOAD,2023-12-08 12:17:12,14.98337509,0.0003079,70.0014,137.2676,271.4729,88.6077,-1.7283e-05,-2.99e-06,0.0,0 STARLINK-5810,1 55776U 23028AM  23342.51194722 -.00000299  00000-0 -17283-4 0  9997,2 55776  70.0014 137.2676 0003079 271.4729  88.6077 14.98337509 43380,6950.17,96.107,574.175,569.895,0.0
55776.0,STARLINK-5810,PAYLOAD,2023-12-09 12:19:12,14.98334723,0.0002725,70.0007,134.7422,260.4603,99.6248,-5.1183e-05,-7.04e-06,0.0,0 STARLINK-5810,1 55776U 23028AM  23343.51334484 -.00000704  00000-0 -51183-4 0  9997,2 55776  70.0007 134.7422 0002725 260.4603  99.6248 14.98334723 43533,6950.178,96.107,573.937,570.149,0.0
55776.0,STARLINK-5810,PAYLOAD,2023-12-10 12:21:13,14.98330474,0.0002709,69.9994,132.2149,260.1258,99.9596,-1.3879e-05,-2.59e-06,0.0,0 STARLINK-5810,1 55776U 23028AM  23344.51474369 -.00000259  00000-0 -13879-4 0  9990,2 55776  69.9994 132.2149 0002709 260.1258  99.9596 14.98330474 43683,6950.191,96.107,573.939,570.174,0.0
55776.0,STARLINK-5810,PAYLOAD,2023-12-10 13:57:21,14.98330329,0.000276,69.9992,132.0462,262.0991,97.9855,-1.4147e-05,-2.62e-06,0.0,0 STARLINK-5810,1 55776U 23028AM  23344.58150380 -.00000262  00000-0 -14147-4 0  9994,2 55776  69.9992 132.0462 0002760 262.0991  97.9855 14.98330329 43695,6950.192,96.107,573.975,570.139,0.0
55776.0,STARLINK-5810,PAYLOAD,2023-12-10 20:21:54,14.98330422,0.0003033,69.9991,131.3733,269.4132,90.668,-1.1249e-05,-2.27e-06,0.0,0 STARLINK-5810,1 55776U 23028AM  23344.84854394 -.00000227  00000-0 -11249-4 0  9990,2 55776  69.9991 131.3733 0003033 269.4132  90.6680 14.98330422 43734,6950.192,96.107,574.165,569.949,0.0
55776.0,STARLINK-5810,PAYLOAD,2023-12-11 13:59:22,14.98330995,0.0003061,69.9991,129.5217,270.6712,89.4097,4.3362e-06,-4.1e-07,0.0,0 STARLINK-5810,1 55776U 23028AM  23345.58290246 -.00000041  00000-0  43362-5 0  9997,2 55776  69.9991 129.5217 0003061 270.6712  89.4097 14.98330995 43844,6950.19,96.107,574.182,569.927,0.0
